[{"OBJECT_NAME":"ION-MK01","OBJECT_ID":"2020-061C","EPOCH":"2026-03-09T17:36:50.178240","MEAN_MOTION":15.87700934,"ECCENTRICITY":0.00022654,"INCLINATION":97.1954,"RA_OF_ASC_NODE":147.6319,"ARG_OF_PERICENTER":234.6366,"MEAN_ANOMALY":125.4695,"EPHEMERIS_TYPE":0,"CLASSIFICATION_TYPE":"U","NORAD_CAT_ID":46274,"ELEMENT_SET_NO":999,"REV_AT_EPOCH":30765,"BSTAR":0.00073643052,"MEAN_MOTION_DOT":0.00199656,"MEAN_MOTION_DDOT":0},{"OBJECT_NAME":"STARLINK-36660","OBJECT_ID":"2026-033AD","EPOCH":"2026-03-09T22:16:30.084672","MEAN_MOTION":15.82182214,"ECCENTRICITY":0.00021228,"INCLINATION":42.9975,"RA_OF_ASC_NODE":269.7949,"ARG_OF_PERICENTER":306.3567,"MEAN_ANOMALY":53.7109,"EPHEMERIS_TYPE":0,"CLASSIFICATION_TYPE":"U","NORAD_CAT_ID":67848,"ELEMENT_SET_NO":999,"REV_AT_EPOCH":466,"BSTAR":0.0025923038,"MEAN_MOTION_DOT":0.00588643,"MEAN_MOTION_DDOT":0}]
